"date","Time(EST)","Temp.","Windchill","Dew Point","Humidity","Pressure","Visibility","Wind Dir","Wind Speed","Gust Speed","Precip","Events","Conditions"
"2010/1/1"
"2010/1/1","2010/1/1","12:00 AM","-3.8","-","-5.6","87","1016.1","-","NE","3.7/1.0m/s","-","N/A","","Unknown"
"2010/1/1","2010/1/1","12:00 AM","-3.8","-","-5.6","87","1016.1","-","NE","3.7/1.0m/s","-","N/A","","Unknown","2010/1/1","1:00 AM","-4","-","-6","84","1016","-","North","5.6/","-","-","",""
"2010/1/1","2010/1/1","12:00 AM","-3.8","-","-5.6","87","1016.1","-","NE","3.7/1.0m/s","-","N/A","","Unknown","2010/1/1","1:00 AM","-4","-","-6","84","1016","-","North","5.6/","-","-","","","2010/1/1","1:00 AM","-4.1","-6.5","-5.5","90","1015.5","-","North","5.6/1.5m/s","-","N/A","","Unknown"
"2010/1/1","2010/1/1","12:00 AM","-3.8","-","-5.6","87","1016.1","-","NE","3.7/1.0m/s","-","N/A","","Unknown","2010/1/1","1:00 AM","-4","-","-6","84","1016","-","North","5.6/","-","-","","","2010/1/1","1:00 AM","-4.1","-6.5","-5.5","90","1015.5","-","North","5.6/1.5m/s","-","N/A","","Unknown","2010/1/1","2:00 AM","-4.2","-7.4","-5.6","90","1015.5","-","NNE","7.4/2.1m/s","-","N/A","","Unknown"
"2010/1/1","2010/1/1","12:00 AM","-3.8","-","-5.6","87","1016.1","-","NE","3.7/1.0m/s","-","N/A","","Unknown","2010/1/1","1:00 AM","-4","-","-6","84","1016","-","North","5.6/","-","-","","","2010/1/1","1:00 AM","-4.1","-6.5","-5.5","90","1015.5","-","North","5.6/1.5m/s","-","N/A","","Unknown","2010/1/1","2:00 AM","-4.2","-7.4","-5.6","90","1015.5","-","NNE","7.4/2.1m/s","-","N/A","","Unknown","2010/1/1","3:00 AM","-4.3","-7.5","-5.6","91","1015.2","-","NNE","7.4/2.1m/s","-","1.3","","Unknown"
"2010/1/1","2010/1/1","12:00 AM","-3.8","-","-5.6","87","1016.1","-","NE","3.7/1.0m/s","-","N/A","","Unknown","2010/1/1","1:00 AM","-4","-","-6","84","1016","-","North","5.6/","-","-","","","2010/1/1","1:00 AM","-4.1","-6.5","-5.5","90","1015.5","-","North","5.6/1.5m/s","-","N/A","","Unknown","2010/1/1","2:00 AM","-4.2","-7.4","-5.6","90","1015.5","-","NNE","7.4/2.1m/s","-","N/A","","Unknown","2010/1/1","3:00 AM","-4.3","-7.5","-5.6","91","1015.2","-","NNE","7.4/2.1m/s","-","1.3","","Unknown","2010/1/1","4:00 AM","-4.3","-8.2","-5.6","91","1014.9","-","NNE","9.3/2.6m/s","-","N/A","","Unknown"
"2010/1/1","2010/1/1","12:00 AM","-3.8","-","-5.6","87","1016.1","-","NE","3.7/1.0m/s","-","N/A","","Unknown","2010/1/1","1:00 AM","-4","-","-6","84","1016","-","North","5.6/","-","-","","","2010/1/1","1:00 AM","-4.1","-6.5","-5.5","90","1015.5","-","North","5.6/1.5m/s","-","N/A","","Unknown","2010/1/1","2:00 AM","-4.2","-7.4","-5.6","90","1015.5","-","NNE","7.4/2.1m/s","-","N/A","","Unknown","2010/1/1","3:00 AM","-4.3","-7.5","-5.6","91","1015.2","-","NNE","7.4/2.1m/s","-","1.3","","Unknown","2010/1/1","4:00 AM","-4.3","-8.2","-5.6","91","1014.9","-","NNE","9.3/2.6m/s","-","N/A","","Unknown","2010/1/1","5:00 AM","-4.5","-7.8","-5.7","91","1014.5","-","NNE","7.4/2.1m/s","-","N/A","","Unknown"
"2010/1/1","2010/1/1","12:00 AM","-3.8","-","-5.6","87","1016.1","-","NE","3.7/1.0m/s","-","N/A","","Unknown","2010/1/1","1:00 AM","-4","-","-6","84","1016","-","North","5.6/","-","-","","","2010/1/1","1:00 AM","-4.1","-6.5","-5.5","90","1015.5","-","North","5.6/1.5m/s","-","N/A","","Unknown","2010/1/1","2:00 AM","-4.2","-7.4","-5.6","90","1015.5","-","NNE","7.4/2.1m/s","-","N/A","","Unknown","2010/1/1","3:00 AM","-4.3","-7.5","-5.6","91","1015.2","-","NNE","7.4/2.1m/s","-","1.3","","Unknown","2010/1/1","4:00 AM","-4.3","-8.2","-5.6","91","1014.9","-","NNE","9.3/2.6m/s","-","N/A","","Unknown","2010/1/1","5:00 AM","-4.5","-7.8","-5.7","91","1014.5","-","NNE","7.4/2.1m/s","-","N/A","","Unknown","2010/1/1","6:00 AM","-4.6","-8.6","-6.0","90","1014.4","-","NNE","9.3/2.6m/s","-","N/A","","Unknown"
"2010/1/1","2010/1/1","12:00 AM","-3.8","-","-5.6","87","1016.1","-","NE","3.7/1.0m/s","-","N/A","","Unknown","2010/1/1","1:00 AM","-4","-","-6","84","1016","-","North","5.6/","-","-","","","2010/1/1","1:00 AM","-4.1","-6.5","-5.5","90","1015.5","-","North","5.6/1.5m/s","-","N/A","","Unknown","2010/1/1","2:00 AM","-4.2","-7.4","-5.6","90","1015.5","-","NNE","7.4/2.1m/s","-","N/A","","Unknown","2010/1/1","3:00 AM","-4.3","-7.5","-5.6","91","1015.2","-","NNE","7.4/2.1m/s","-","1.3","","Unknown","2010/1/1","4:00 AM","-4.3","-8.2","-5.6","91","1014.9","-","NNE","9.3/2.6m/s","-","N/A","","Unknown","2010/1/1","5:00 AM","-4.5","-7.8","-5.7","91","1014.5","-","NNE","7.4/2.1m/s","-","N/A","","Unknown","2010/1/1","6:00 AM","-4.6","-8.6","-6.0","90","1014.4","-","NNE","9.3/2.6m/s","-","N/A","","Unknown","2010/1/1","7:00 AM","-5","-","-6","85","1014","-","NNE","9.3/","-","-","",""
"2010/1/1","2010/1/1","12:00 AM","-3.8","-","-5.6","87","1016.1","-","NE","3.7/1.0m/s","-","N/A","","Unknown","2010/1/1","1:00 AM","-4","-","-6","84","1016","-","North","5.6/","-","-","","","2010/1/1","1:00 AM","-4.1","-6.5","-5.5","90","1015.5","-","North","5.6/1.5m/s","-","N/A","","Unknown","2010/1/1","2:00 AM","-4.2","-7.4","-5.6","90","1015.5","-","NNE","7.4/2.1m/s","-","N/A","","Unknown","2010/1/1","3:00 AM","-4.3","-7.5","-5.6","91","1015.2","-","NNE","7.4/2.1m/s","-","1.3","","Unknown","2010/1/1","4:00 AM","-4.3","-8.2","-5.6","91","1014.9","-","NNE","9.3/2.6m/s","-","N/A","","Unknown","2010/1/1","5:00 AM","-4.5","-7.8","-5.7","91","1014.5","-","NNE","7.4/2.1m/s","-","N/A","","Unknown","2010/1/1","6:00 AM","-4.6","-8.6","-6.0","90","1014.4","-","NNE","9.3/2.6m/s","-","N/A","","Unknown","2010/1/1","7:00 AM","-5","-","-6","85","1014","-","NNE","9.3/","-","-","","","2010/1/1","7:00 AM","-4.6","-8.6","-5.9","91","1014.2","-","NNE","9.3/2.6m/s","-","N/A","","Unknown"
"2010/1/1","2010/1/1","12:00 AM","-3.8","-","-5.6","87","1016.1","-","NE","3.7/1.0m/s","-","N/A","","Unknown","2010/1/1","1:00 AM","-4","-","-6","84","1016","-","North","5.6/","-","-","","","2010/1/1","1:00 AM","-4.1","-6.5","-5.5","90","1015.5","-","North","5.6/1.5m/s","-","N/A","","Unknown","2010/1/1","2:00 AM","-4.2","-7.4","-5.6","90","1015.5","-","NNE","7.4/2.1m/s","-","N/A","","Unknown","2010/1/1","3:00 AM","-4.3","-7.5","-5.6","91","1015.2","-","NNE","7.4/2.1m/s","-","1.3","","Unknown","2010/1/1","4:00 AM","-4.3","-8.2","-5.6","91","1014.9","-","NNE","9.3/2.6m/s","-","N/A","","Unknown","2010/1/1","5:00 AM","-4.5","-7.8","-5.7","91","1014.5","-","NNE","7.4/2.1m/s","-","N/A","","Unknown","2010/1/1","6:00 AM","-4.6","-8.6","-6.0","90","1014.4","-","NNE","9.3/2.6m/s","-","N/A","","Unknown","2010/1/1","7:00 AM","-5","-","-6","85","1014","-","NNE","9.3/","-","-","","","2010/1/1","7:00 AM","-4.6","-8.6","-5.9","91","1014.2","-","NNE","9.3/2.6m/s","-","N/A","","Unknown","2010/1/1","8:00 AM","-4.6","-7.9","-6.1","89","1014.1","-","NNE","7.4/2.1m/s","-","N/A","","Unknown"
"2010/1/1","2010/1/1","12:00 AM","-3.8","-","-5.6","87","1016.1","-","NE","3.7/1.0m/s","-","N/A","","Unknown","2010/1/1","1:00 AM","-4","-","-6","84","1016","-","North","5.6/","-","-","","","2010/1/1","1:00 AM","-4.1","-6.5","-5.5","90","1015.5","-","North","5.6/1.5m/s","-","N/A","","Unknown","2010/1/1","2:00 AM","-4.2","-7.4","-5.6","90","1015.5","-","NNE","7.4/2.1m/s","-","N/A","","Unknown","2010/1/1","3:00 AM","-4.3","-7.5","-5.6","91","1015.2","-","NNE","7.4/2.1m/s","-","1.3","","Unknown","2010/1/1","4:00 AM","-4.3","-8.2","-5.6","91","1014.9","-","NNE","9.3/2.6m/s","-","N/A","","Unknown","2010/1/1","5:00 AM","-4.5","-7.8","-5.7","91","1014.5","-","NNE","7.4/2.1m/s","-","N/A","","Unknown","2010/1/1","6:00 AM","-4.6","-8.6","-6.0","90","1014.4","-","NNE","9.3/2.6m/s","-","N/A","","Unknown","2010/1/1","7:00 AM","-5","-","-6","85","1014","-","NNE","9.3/","-","-","","","2010/1/1","7:00 AM","-4.6","-8.6","-5.9","91","1014.2","-","NNE","9.3/2.6m/s","-","N/A","","Unknown","2010/1/1","8:00 AM","-4.6","-7.9","-6.1","89","1014.1","-","NNE","7.4/2.1m/s","-","N/A","","Unknown","2010/1/1","9:00 AM","-4.5","-8.4","-6.0","89","1014.0","-","North","9.3/2.6m/s","-","1.3","","Unknown"
"2010/1/1","2010/1/1","12:00 AM","-3.8","-","-5.6","87","1016.1","-","NE","3.7/1.0m/s","-","N/A","","Unknown","2010/1/1","1:00 AM","-4","-","-6","84","1016","-","North","5.6/","-","-","","","2010/1/1","1:00 AM","-4.1","-6.5","-5.5","90","1015.5","-","North","5.6/1.5m/s","-","N/A","","Unknown","2010/1/1","2:00 AM","-4.2","-7.4","-5.6","90","1015.5","-","NNE","7.4/2.1m/s","-","N/A","","Unknown","2010/1/1","3:00 AM","-4.3","-7.5","-5.6","91","1015.2","-","NNE","7.4/2.1m/s","-","1.3","","Unknown","2010/1/1","4:00 AM","-4.3","-8.2","-5.6","91","1014.9","-","NNE","9.3/2.6m/s","-","N/A","","Unknown","2010/1/1","5:00 AM","-4.5","-7.8","-5.7","91","1014.5","-","NNE","7.4/2.1m/s","-","N/A","","Unknown","2010/1/1","6:00 AM","-4.6","-8.6","-6.0","90","1014.4","-","NNE","9.3/2.6m/s","-","N/A","","Unknown","2010/1/1","7:00 AM","-5","-","-6","85","1014","-","NNE","9.3/","-","-","","","2010/1/1","7:00 AM","-4.6","-8.6","-5.9","91","1014.2","-","NNE","9.3/2.6m/s","-","N/A","","Unknown","2010/1/1","8:00 AM","-4.6","-7.9","-6.1","89","1014.1","-","NNE","7.4/2.1m/s","-","N/A","","Unknown","2010/1/1","9:00 AM","-4.5","-8.4","-6.0","89","1014.0","-","North","9.3/2.6m/s","-","1.3","","Unknown","2010/1/1","10:00 AM","-4.2","-8.1","-5.8","89","1013.8","-","NNE","9.3/2.6m/s","-","N/A","","Unknown"
"2010/1/1","2010/1/1","12:00 AM","-3.8","-","-5.6","87","1016.1","-","NE","3.7/1.0m/s","-","N/A","","Unknown","2010/1/1","1:00 AM","-4","-","-6","84","1016","-","North","5.6/","-","-","","","2010/1/1","1:00 AM","-4.1","-6.5","-5.5","90","1015.5","-","North","5.6/1.5m/s","-","N/A","","Unknown","2010/1/1","2:00 AM","-4.2","-7.4","-5.6","90","1015.5","-","NNE","7.4/2.1m/s","-","N/A","","Unknown","2010/1/1","3:00 AM","-4.3","-7.5","-5.6","91","1015.2","-","NNE","7.4/2.1m/s","-","1.3","","Unknown","2010/1/1","4:00 AM","-4.3","-8.2","-5.6","91","1014.9","-","NNE","9.3/2.6m/s","-","N/A","","Unknown","2010/1/1","5:00 AM","-4.5","-7.8","-5.7","91","1014.5","-","NNE","7.4/2.1m/s","-","N/A","","Unknown","2010/1/1","6:00 AM","-4.6","-8.6","-6.0","90","1014.4","-","NNE","9.3/2.6m/s","-","N/A","","Unknown","2010/1/1","7:00 AM","-5","-","-6","85","1014","-","NNE","9.3/","-","-","","","2010/1/1","7:00 AM","-4.6","-8.6","-5.9","91","1014.2","-","NNE","9.3/2.6m/s","-","N/A","","Unknown","2010/1/1","8:00 AM","-4.6","-7.9","-6.1","89","1014.1","-","NNE","7.4/2.1m/s","-","N/A","","Unknown","2010/1/1","9:00 AM","-4.5","-8.4","-6.0","89","1014.0","-","North","9.3/2.6m/s","-","1.3","","Unknown","2010/1/1","10:00 AM","-4.2","-8.1","-5.8","89","1013.8","-","NNE","9.3/2.6m/s","-","N/A","","Unknown","2010/1/1","11:00 AM","-3.9","-7.7","-5.5","89","1013.0","-","North","9.3/2.6m/s","-","N/A","","Unknown"
"2010/1/1","2010/1/1","12:00 AM","-3.8","-","-5.6","87","1016.1","-","NE","3.7/1.0m/s","-","N/A","","Unknown","2010/1/1","1:00 AM","-4","-","-6","84","1016","-","North","5.6/","-","-","","","2010/1/1","1:00 AM","-4.1","-6.5","-5.5","90","1015.5","-","North","5.6/1.5m/s","-","N/A","","Unknown","2010/1/1","2:00 AM","-4.2","-7.4","-5.6","90","1015.5","-","NNE","7.4/2.1m/s","-","N/A","","Unknown","2010/1/1","3:00 AM","-4.3","-7.5","-5.6","91","1015.2","-","NNE","7.4/2.1m/s","-","1.3","","Unknown","2010/1/1","4:00 AM","-4.3","-8.2","-5.6","91","1014.9","-","NNE","9.3/2.6m/s","-","N/A","","Unknown","2010/1/1","5:00 AM","-4.5","-7.8","-5.7","91","1014.5","-","NNE","7.4/2.1m/s","-","N/A","","Unknown","2010/1/1","6:00 AM","-4.6","-8.6","-6.0","90","1014.4","-","NNE","9.3/2.6m/s","-","N/A","","Unknown","2010/1/1","7:00 AM","-5","-","-6","85","1014","-","NNE","9.3/","-","-","","","2010/1/1","7:00 AM","-4.6","-8.6","-5.9","91","1014.2","-","NNE","9.3/2.6m/s","-","N/A","","Unknown","2010/1/1","8:00 AM","-4.6","-7.9","-6.1","89","1014.1","-","NNE","7.4/2.1m/s","-","N/A","","Unknown","2010/1/1","9:00 AM","-4.5","-8.4","-6.0","89","1014.0","-","North","9.3/2.6m/s","-","1.3","","Unknown","2010/1/1","10:00 AM","-4.2","-8.1","-5.8","89","1013.8","-","NNE","9.3/2.6m/s","-","N/A","","Unknown","2010/1/1","11:00 AM","-3.9","-7.7","-5.5","89","1013.0","-","North","9.3/2.6m/s","-","N/A","","Unknown","2010/1/1","12:00 PM","-3.2","-6.3","-5.3","86","1012.5","-","NNE","7.4/2.1m/s","-","N/A","","Unknown"
"2010/1/1","2010/1/1","12:00 AM","-3.8","-","-5.6","87","1016.1","-","NE","3.7/1.0m/s","-","N/A","","Unknown","2010/1/1","1:00 AM","-4","-","-6","84","1016","-","North","5.6/","-","-","","","2010/1/1","1:00 AM","-4.1","-6.5","-5.5","90","1015.5","-","North","5.6/1.5m/s","-","N/A","","Unknown","2010/1/1","2:00 AM","-4.2","-7.4","-5.6","90","1015.5","-","NNE","7.4/2.1m/s","-","N/A","","Unknown","2010/1/1","3:00 AM","-4.3","-7.5","-5.6","91","1015.2","-","NNE","7.4/2.1m/s","-","1.3","","Unknown","2010/1/1","4:00 AM","-4.3","-8.2","-5.6","91","1014.9","-","NNE","9.3/2.6m/s","-","N/A","","Unknown","2010/1/1","5:00 AM","-4.5","-7.8","-5.7","91","1014.5","-","NNE","7.4/2.1m/s","-","N/A","","Unknown","2010/1/1","6:00 AM","-4.6","-8.6","-6.0","90","1014.4","-","NNE","9.3/2.6m/s","-","N/A","","Unknown","2010/1/1","7:00 AM","-5","-","-6","85","1014","-","NNE","9.3/","-","-","","","2010/1/1","7:00 AM","-4.6","-8.6","-5.9","91","1014.2","-","NNE","9.3/2.6m/s","-","N/A","","Unknown","2010/1/1","8:00 AM","-4.6","-7.9","-6.1","89","1014.1","-","NNE","7.4/2.1m/s","-","N/A","","Unknown","2010/1/1","9:00 AM","-4.5","-8.4","-6.0","89","1014.0","-","North","9.3/2.6m/s","-","1.3","","Unknown","2010/1/1","10:00 AM","-4.2","-8.1","-5.8","89","1013.8","-","NNE","9.3/2.6m/s","-","N/A","","Unknown","2010/1/1","11:00 AM","-3.9","-7.7","-5.5","89","1013.0","-","North","9.3/2.6m/s","-","N/A","","Unknown","2010/1/1","12:00 PM","-3.2","-6.3","-5.3","86","1012.5","-","NNE","7.4/2.1m/s","-","N/A","","Unknown","2010/1/1","1:00 PM","-3","-","-5","80","1012","-","NNE","7.4/","-","-","",""
"2010/1/1","2010/1/1","12:00 AM","-3.8","-","-5.6","87","1016.1","-","NE","3.7/1.0m/s","-","N/A","","Unknown","2010/1/1","1:00 AM","-4","-","-6","84","1016","-","North","5.6/","-","-","","","2010/1/1","1:00 AM","-4.1","-6.5","-5.5","90","1015.5","-","North","5.6/1.5m/s","-","N/A","","Unknown","2010/1/1","2:00 AM","-4.2","-7.4","-5.6","90","1015.5","-","NNE","7.4/2.1m/s","-","N/A","","Unknown","2010/1/1","3:00 AM","-4.3","-7.5","-5.6","91","1015.2","-","NNE","7.4/2.1m/s","-","1.3","","Unknown","2010/1/1","4:00 AM","-4.3","-8.2","-5.6","91","1014.9","-","NNE","9.3/2.6m/s","-","N/A","","Unknown","2010/1/1","5:00 AM","-4.5","-7.8","-5.7","91","1014.5","-","NNE","7.4/2.1m/s","-","N/A","","Unknown","2010/1/1","6:00 AM","-4.6","-8.6","-6.0","90","1014.4","-","NNE","9.3/2.6m/s","-","N/A","","Unknown","2010/1/1","7:00 AM","-5","-","-6","85","1014","-","NNE","9.3/","-","-","","","2010/1/1","7:00 AM","-4.6","-8.6","-5.9","91","1014.2","-","NNE","9.3/2.6m/s","-","N/A","","Unknown","2010/1/1","8:00 AM","-4.6","-7.9","-6.1","89","1014.1","-","NNE","7.4/2.1m/s","-","N/A","","Unknown","2010/1/1","9:00 AM","-4.5","-8.4","-6.0","89","1014.0","-","North","9.3/2.6m/s","-","1.3","","Unknown","2010/1/1","10:00 AM","-4.2","-8.1","-5.8","89","1013.8","-","NNE","9.3/2.6m/s","-","N/A","","Unknown","2010/1/1","11:00 AM","-3.9","-7.7","-5.5","89","1013.0","-","North","9.3/2.6m/s","-","N/A","","Unknown","2010/1/1","12:00 PM","-3.2","-6.3","-5.3","86","1012.5","-","NNE","7.4/2.1m/s","-","N/A","","Unknown","2010/1/1","1:00 PM","-3","-","-5","80","1012","-","NNE","7.4/","-","-","","","2010/1/1","1:00 PM","-3.1","-6.1","-5.4","84","1011.9","-","NNE","7.4/2.1m/s","-","N/A","","Unknown"
"2010/1/1","2010/1/1","12:00 AM","-3.8","-","-5.6","87","1016.1","-","NE","3.7/1.0m/s","-","N/A","","Unknown","2010/1/1","1:00 AM","-4","-","-6","84","1016","-","North","5.6/","-","-","","","2010/1/1","1:00 AM","-4.1","-6.5","-5.5","90","1015.5","-","North","5.6/1.5m/s","-","N/A","","Unknown","2010/1/1","2:00 AM","-4.2","-7.4","-5.6","90","1015.5","-","NNE","7.4/2.1m/s","-","N/A","","Unknown","2010/1/1","3:00 AM","-4.3","-7.5","-5.6","91","1015.2","-","NNE","7.4/2.1m/s","-","1.3","","Unknown","2010/1/1","4:00 AM","-4.3","-8.2","-5.6","91","1014.9","-","NNE","9.3/2.6m/s","-","N/A","","Unknown","2010/1/1","5:00 AM","-4.5","-7.8","-5.7","91","1014.5","-","NNE","7.4/2.1m/s","-","N/A","","Unknown","2010/1/1","6:00 AM","-4.6","-8.6","-6.0","90","1014.4","-","NNE","9.3/2.6m/s","-","N/A","","Unknown","2010/1/1","7:00 AM","-5","-","-6","85","1014","-","NNE","9.3/","-","-","","","2010/1/1","7:00 AM","-4.6","-8.6","-5.9","91","1014.2","-","NNE","9.3/2.6m/s","-","N/A","","Unknown","2010/1/1","8:00 AM","-4.6","-7.9","-6.1","89","1014.1","-","NNE","7.4/2.1m/s","-","N/A","","Unknown","2010/1/1","9:00 AM","-4.5","-8.4","-6.0","89","1014.0","-","North","9.3/2.6m/s","-","1.3","","Unknown","2010/1/1","10:00 AM","-4.2","-8.1","-5.8","89","1013.8","-","NNE","9.3/2.6m/s","-","N/A","","Unknown","2010/1/1","11:00 AM","-3.9","-7.7","-5.5","89","1013.0","-","North","9.3/2.6m/s","-","N/A","","Unknown","2010/1/1","12:00 PM","-3.2","-6.3","-5.3","86","1012.5","-","NNE","7.4/2.1m/s","-","N/A","","Unknown","2010/1/1","1:00 PM","-3","-","-5","80","1012","-","NNE","7.4/","-","-","","","2010/1/1","1:00 PM","-3.1","-6.1","-5.4","84","1011.9","-","NNE","7.4/2.1m/s","-","N/A","","Unknown","2010/1/1","2:00 PM","-3.3","-7.5","-5.6","84","1011.6","-","NNE","11.1/3.1m/s","-","N/A","","Unknown"
"2010/1/1","2010/1/1","12:00 AM","-3.8","-","-5.6","87","1016.1","-","NE","3.7/1.0m/s","-","N/A","","Unknown","2010/1/1","1:00 AM","-4","-","-6","84","1016","-","North","5.6/","-","-","","","2010/1/1","1:00 AM","-4.1","-6.5","-5.5","90","1015.5","-","North","5.6/1.5m/s","-","N/A","","Unknown","2010/1/1","2:00 AM","-4.2","-7.4","-5.6","90","1015.5","-","NNE","7.4/2.1m/s","-","N/A","","Unknown","2010/1/1","3:00 AM","-4.3","-7.5","-5.6","91","1015.2","-","NNE","7.4/2.1m/s","-","1.3","","Unknown","2010/1/1","4:00 AM","-4.3","-8.2","-5.6","91","1014.9","-","NNE","9.3/2.6m/s","-","N/A","","Unknown","2010/1/1","5:00 AM","-4.5","-7.8","-5.7","91","1014.5","-","NNE","7.4/2.1m/s","-","N/A","","Unknown","2010/1/1","6:00 AM","-4.6","-8.6","-6.0","90","1014.4","-","NNE","9.3/2.6m/s","-","N/A","","Unknown","2010/1/1","7:00 AM","-5","-","-6","85","1014","-","NNE","9.3/","-","-","","","2010/1/1","7:00 AM","-4.6","-8.6","-5.9","91","1014.2","-","NNE","9.3/2.6m/s","-","N/A","","Unknown","2010/1/1","8:00 AM","-4.6","-7.9","-6.1","89","1014.1","-","NNE","7.4/2.1m/s","-","N/A","","Unknown","2010/1/1","9:00 AM","-4.5","-8.4","-6.0","89","1014.0","-","North","9.3/2.6m/s","-","1.3","","Unknown","2010/1/1","10:00 AM","-4.2","-8.1","-5.8","89","1013.8","-","NNE","9.3/2.6m/s","-","N/A","","Unknown","2010/1/1","11:00 AM","-3.9","-7.7","-5.5","89","1013.0","-","North","9.3/2.6m/s","-","N/A","","Unknown","2010/1/1","12:00 PM","-3.2","-6.3","-5.3","86","1012.5","-","NNE","7.4/2.1m/s","-","N/A","","Unknown","2010/1/1","1:00 PM","-3","-","-5","80","1012","-","NNE","7.4/","-","-","","","2010/1/1","1:00 PM","-3.1","-6.1","-5.4","84","1011.9","-","NNE","7.4/2.1m/s","-","N/A","","Unknown","2010/1/1","2:00 PM","-3.3","-7.5","-5.6","84","1011.6","-","NNE","11.1/3.1m/s","-","N/A","","Unknown","2010/1/1","3:00 PM","-3.1","-6.1","-4.9","88","1011.5","-","NE","7.4/2.1m/s","-","N/A","","Unknown"
"2010/1/1","2010/1/1","12:00 AM","-3.8","-","-5.6","87","1016.1","-","NE","3.7/1.0m/s","-","N/A","","Unknown","2010/1/1","1:00 AM","-4","-","-6","84","1016","-","North","5.6/","-","-","","","2010/1/1","1:00 AM","-4.1","-6.5","-5.5","90","1015.5","-","North","5.6/1.5m/s","-","N/A","","Unknown","2010/1/1","2:00 AM","-4.2","-7.4","-5.6","90","1015.5","-","NNE","7.4/2.1m/s","-","N/A","","Unknown","2010/1/1","3:00 AM","-4.3","-7.5","-5.6","91","1015.2","-","NNE","7.4/2.1m/s","-","1.3","","Unknown","2010/1/1","4:00 AM","-4.3","-8.2","-5.6","91","1014.9","-","NNE","9.3/2.6m/s","-","N/A","","Unknown","2010/1/1","5:00 AM","-4.5","-7.8","-5.7","91","1014.5","-","NNE","7.4/2.1m/s","-","N/A","","Unknown","2010/1/1","6:00 AM","-4.6","-8.6","-6.0","90","1014.4","-","NNE","9.3/2.6m/s","-","N/A","","Unknown","2010/1/1","7:00 AM","-5","-","-6","85","1014","-","NNE","9.3/","-","-","","","2010/1/1","7:00 AM","-4.6","-8.6","-5.9","91","1014.2","-","NNE","9.3/2.6m/s","-","N/A","","Unknown","2010/1/1","8:00 AM","-4.6","-7.9","-6.1","89","1014.1","-","NNE","7.4/2.1m/s","-","N/A","","Unknown","2010/1/1","9:00 AM","-4.5","-8.4","-6.0","89","1014.0","-","North","9.3/2.6m/s","-","1.3","","Unknown","2010/1/1","10:00 AM","-4.2","-8.1","-5.8","89","1013.8","-","NNE","9.3/2.6m/s","-","N/A","","Unknown","2010/1/1","11:00 AM","-3.9","-7.7","-5.5","89","1013.0","-","North","9.3/2.6m/s","-","N/A","","Unknown","2010/1/1","12:00 PM","-3.2","-6.3","-5.3","86","1012.5","-","NNE","7.4/2.1m/s","-","N/A","","Unknown","2010/1/1","1:00 PM","-3","-","-5","80","1012","-","NNE","7.4/","-","-","","","2010/1/1","1:00 PM","-3.1","-6.1","-5.4","84","1011.9","-","NNE","7.4/2.1m/s","-","N/A","","Unknown","2010/1/1","2:00 PM","-3.3","-7.5","-5.6","84","1011.6","-","NNE","11.1/3.1m/s","-","N/A","","Unknown","2010/1/1","3:00 PM","-3.1","-6.1","-4.9","88","1011.5","-","NE","7.4/2.1m/s","-","N/A","","Unknown","2010/1/1","4:00 PM","-3.2","-6.3","-4.9","88","1011.3","-","NNE","7.4/2.1m/s","-","N/A","","Unknown"
"2010/1/1","2010/1/1","12:00 AM","-3.8","-","-5.6","87","1016.1","-","NE","3.7/1.0m/s","-","N/A","","Unknown","2010/1/1","1:00 AM","-4","-","-6","84","1016","-","North","5.6/","-","-","","","2010/1/1","1:00 AM","-4.1","-6.5","-5.5","90","1015.5","-","North","5.6/1.5m/s","-","N/A","","Unknown","2010/1/1","2:00 AM","-4.2","-7.4","-5.6","90","1015.5","-","NNE","7.4/2.1m/s","-","N/A","","Unknown","2010/1/1","3:00 AM","-4.3","-7.5","-5.6","91","1015.2","-","NNE","7.4/2.1m/s","-","1.3","","Unknown","2010/1/1","4:00 AM","-4.3","-8.2","-5.6","91","1014.9","-","NNE","9.3/2.6m/s","-","N/A","","Unknown","2010/1/1","5:00 AM","-4.5","-7.8","-5.7","91","1014.5","-","NNE","7.4/2.1m/s","-","N/A","","Unknown","2010/1/1","6:00 AM","-4.6","-8.6","-6.0","90","1014.4","-","NNE","9.3/2.6m/s","-","N/A","","Unknown","2010/1/1","7:00 AM","-5","-","-6","85","1014","-","NNE","9.3/","-","-","","","2010/1/1","7:00 AM","-4.6","-8.6","-5.9","91","1014.2","-","NNE","9.3/2.6m/s","-","N/A","","Unknown","2010/1/1","8:00 AM","-4.6","-7.9","-6.1","89","1014.1","-","NNE","7.4/2.1m/s","-","N/A","","Unknown","2010/1/1","9:00 AM","-4.5","-8.4","-6.0","89","1014.0","-","North","9.3/2.6m/s","-","1.3","","Unknown","2010/1/1","10:00 AM","-4.2","-8.1","-5.8","89","1013.8","-","NNE","9.3/2.6m/s","-","N/A","","Unknown","2010/1/1","11:00 AM","-3.9","-7.7","-5.5","89","1013.0","-","North","9.3/2.6m/s","-","N/A","","Unknown","2010/1/1","12:00 PM","-3.2","-6.3","-5.3","86","1012.5","-","NNE","7.4/2.1m/s","-","N/A","","Unknown","2010/1/1","1:00 PM","-3","-","-5","80","1012","-","NNE","7.4/","-","-","","","2010/1/1","1:00 PM","-3.1","-6.1","-5.4","84","1011.9","-","NNE","7.4/2.1m/s","-","N/A","","Unknown","2010/1/1","2:00 PM","-3.3","-7.5","-5.6","84","1011.6","-","NNE","11.1/3.1m/s","-","N/A","","Unknown","2010/1/1","3:00 PM","-3.1","-6.1","-4.9","88","1011.5","-","NE","7.4/2.1m/s","-","N/A","","Unknown","2010/1/1","4:00 PM","-3.2","-6.3","-4.9","88","1011.3","-","NNE","7.4/2.1m/s","-","N/A","","Unknown","2010/1/1","5:00 PM","-3.6","-6.7","-5.1","89","1011.3","-","NE","7.4/2.1m/s","-","N/A","","Unknown"
"2010/1/1","2010/1/1","12:00 AM","-3.8","-","-5.6","87","1016.1","-","NE","3.7/1.0m/s","-","N/A","","Unknown","2010/1/1","1:00 AM","-4","-","-6","84","1016","-","North","5.6/","-","-","","","2010/1/1","1:00 AM","-4.1","-6.5","-5.5","90","1015.5","-","North","5.6/1.5m/s","-","N/A","","Unknown","2010/1/1","2:00 AM","-4.2","-7.4","-5.6","90","1015.5","-","NNE","7.4/2.1m/s","-","N/A","","Unknown","2010/1/1","3:00 AM","-4.3","-7.5","-5.6","91","1015.2","-","NNE","7.4/2.1m/s","-","1.3","","Unknown","2010/1/1","4:00 AM","-4.3","-8.2","-5.6","91","1014.9","-","NNE","9.3/2.6m/s","-","N/A","","Unknown","2010/1/1","5:00 AM","-4.5","-7.8","-5.7","91","1014.5","-","NNE","7.4/2.1m/s","-","N/A","","Unknown","2010/1/1","6:00 AM","-4.6","-8.6","-6.0","90","1014.4","-","NNE","9.3/2.6m/s","-","N/A","","Unknown","2010/1/1","7:00 AM","-5","-","-6","85","1014","-","NNE","9.3/","-","-","","","2010/1/1","7:00 AM","-4.6","-8.6","-5.9","91","1014.2","-","NNE","9.3/2.6m/s","-","N/A","","Unknown","2010/1/1","8:00 AM","-4.6","-7.9","-6.1","89","1014.1","-","NNE","7.4/2.1m/s","-","N/A","","Unknown","2010/1/1","9:00 AM","-4.5","-8.4","-6.0","89","1014.0","-","North","9.3/2.6m/s","-","1.3","","Unknown","2010/1/1","10:00 AM","-4.2","-8.1","-5.8","89","1013.8","-","NNE","9.3/2.6m/s","-","N/A","","Unknown","2010/1/1","11:00 AM","-3.9","-7.7","-5.5","89","1013.0","-","North","9.3/2.6m/s","-","N/A","","Unknown","2010/1/1","12:00 PM","-3.2","-6.3","-5.3","86","1012.5","-","NNE","7.4/2.1m/s","-","N/A","","Unknown","2010/1/1","1:00 PM","-3","-","-5","80","1012","-","NNE","7.4/","-","-","","","2010/1/1","1:00 PM","-3.1","-6.1","-5.4","84","1011.9","-","NNE","7.4/2.1m/s","-","N/A","","Unknown","2010/1/1","2:00 PM","-3.3","-7.5","-5.6","84","1011.6","-","NNE","11.1/3.1m/s","-","N/A","","Unknown","2010/1/1","3:00 PM","-3.1","-6.1","-4.9","88","1011.5","-","NE","7.4/2.1m/s","-","N/A","","Unknown","2010/1/1","4:00 PM","-3.2","-6.3","-4.9","88","1011.3","-","NNE","7.4/2.1m/s","-","N/A","","Unknown","2010/1/1","5:00 PM","-3.6","-6.7","-5.1","89","1011.3","-","NE","7.4/2.1m/s","-","N/A","","Unknown","2010/1/1","6:00 PM","-3.5","-7.2","-4.9","90","1011.1","-","NE","9.3/2.6m/s","-","1.3","","Unknown"
"2010/1/1","2010/1/1","12:00 AM","-3.8","-","-5.6","87","1016.1","-","NE","3.7/1.0m/s","-","N/A","","Unknown","2010/1/1","1:00 AM","-4","-","-6","84","1016","-","North","5.6/","-","-","","","2010/1/1","1:00 AM","-4.1","-6.5","-5.5","90","1015.5","-","North","5.6/1.5m/s","-","N/A","","Unknown","2010/1/1","2:00 AM","-4.2","-7.4","-5.6","90","1015.5","-","NNE","7.4/2.1m/s","-","N/A","","Unknown","2010/1/1","3:00 AM","-4.3","-7.5","-5.6","91","1015.2","-","NNE","7.4/2.1m/s","-","1.3","","Unknown","2010/1/1","4:00 AM","-4.3","-8.2","-5.6","91","1014.9","-","NNE","9.3/2.6m/s","-","N/A","","Unknown","2010/1/1","5:00 AM","-4.5","-7.8","-5.7","91","1014.5","-","NNE","7.4/2.1m/s","-","N/A","","Unknown","2010/1/1","6:00 AM","-4.6","-8.6","-6.0","90","1014.4","-","NNE","9.3/2.6m/s","-","N/A","","Unknown","2010/1/1","7:00 AM","-5","-","-6","85","1014","-","NNE","9.3/","-","-","","","2010/1/1","7:00 AM","-4.6","-8.6","-5.9","91","1014.2","-","NNE","9.3/2.6m/s","-","N/A","","Unknown","2010/1/1","8:00 AM","-4.6","-7.9","-6.1","89","1014.1","-","NNE","7.4/2.1m/s","-","N/A","","Unknown","2010/1/1","9:00 AM","-4.5","-8.4","-6.0","89","1014.0","-","North","9.3/2.6m/s","-","1.3","","Unknown","2010/1/1","10:00 AM","-4.2","-8.1","-5.8","89","1013.8","-","NNE","9.3/2.6m/s","-","N/A","","Unknown","2010/1/1","11:00 AM","-3.9","-7.7","-5.5","89","1013.0","-","North","9.3/2.6m/s","-","N/A","","Unknown","2010/1/1","12:00 PM","-3.2","-6.3","-5.3","86","1012.5","-","NNE","7.4/2.1m/s","-","N/A","","Unknown","2010/1/1","1:00 PM","-3","-","-5","80","1012","-","NNE","7.4/","-","-","","","2010/1/1","1:00 PM","-3.1","-6.1","-5.4","84","1011.9","-","NNE","7.4/2.1m/s","-","N/A","","Unknown","2010/1/1","2:00 PM","-3.3","-7.5","-5.6","84","1011.6","-","NNE","11.1/3.1m/s","-","N/A","","Unknown","2010/1/1","3:00 PM","-3.1","-6.1","-4.9","88","1011.5","-","NE","7.4/2.1m/s","-","N/A","","Unknown","2010/1/1","4:00 PM","-3.2","-6.3","-4.9","88","1011.3","-","NNE","7.4/2.1m/s","-","N/A","","Unknown","2010/1/1","5:00 PM","-3.6","-6.7","-5.1","89","1011.3","-","NE","7.4/2.1m/s","-","N/A","","Unknown","2010/1/1","6:00 PM","-3.5","-7.2","-4.9","90","1011.1","-","NE","9.3/2.6m/s","-","1.3","","Unknown","2010/1/1","7:00 PM","-4","-","-5","84","1011","-","North","9.3/","-","-","",""
"2010/1/1","2010/1/1","12:00 AM","-3.8","-","-5.6","87","1016.1","-","NE","3.7/1.0m/s","-","N/A","","Unknown","2010/1/1","1:00 AM","-4","-","-6","84","1016","-","North","5.6/","-","-","","","2010/1/1","1:00 AM","-4.1","-6.5","-5.5","90","1015.5","-","North","5.6/1.5m/s","-","N/A","","Unknown","2010/1/1","2:00 AM","-4.2","-7.4","-5.6","90","1015.5","-","NNE","7.4/2.1m/s","-","N/A","","Unknown","2010/1/1","3:00 AM","-4.3","-7.5","-5.6","91","1015.2","-","NNE","7.4/2.1m/s","-","1.3","","Unknown","2010/1/1","4:00 AM","-4.3","-8.2","-5.6","91","1014.9","-","NNE","9.3/2.6m/s","-","N/A","","Unknown","2010/1/1","5:00 AM","-4.5","-7.8","-5.7","91","1014.5","-","NNE","7.4/2.1m/s","-","N/A","","Unknown","2010/1/1","6:00 AM","-4.6","-8.6","-6.0","90","1014.4","-","NNE","9.3/2.6m/s","-","N/A","","Unknown","2010/1/1","7:00 AM","-5","-","-6","85","1014","-","NNE","9.3/","-","-","","","2010/1/1","7:00 AM","-4.6","-8.6","-5.9","91","1014.2","-","NNE","9.3/2.6m/s","-","N/A","","Unknown","2010/1/1","8:00 AM","-4.6","-7.9","-6.1","89","1014.1","-","NNE","7.4/2.1m/s","-","N/A","","Unknown","2010/1/1","9:00 AM","-4.5","-8.4","-6.0","89","1014.0","-","North","9.3/2.6m/s","-","1.3","","Unknown","2010/1/1","10:00 AM","-4.2","-8.1","-5.8","89","1013.8","-","NNE","9.3/2.6m/s","-","N/A","","Unknown","2010/1/1","11:00 AM","-3.9","-7.7","-5.5","89","1013.0","-","North","9.3/2.6m/s","-","N/A","","Unknown","2010/1/1","12:00 PM","-3.2","-6.3","-5.3","86","1012.5","-","NNE","7.4/2.1m/s","-","N/A","","Unknown","2010/1/1","1:00 PM","-3","-","-5","80","1012","-","NNE","7.4/","-","-","","","2010/1/1","1:00 PM","-3.1","-6.1","-5.4","84","1011.9","-","NNE","7.4/2.1m/s","-","N/A","","Unknown","2010/1/1","2:00 PM","-3.3","-7.5","-5.6","84","1011.6","-","NNE","11.1/3.1m/s","-","N/A","","Unknown","2010/1/1","3:00 PM","-3.1","-6.1","-4.9","88","1011.5","-","NE","7.4/2.1m/s","-","N/A","","Unknown","2010/1/1","4:00 PM","-3.2","-6.3","-4.9","88","1011.3","-","NNE","7.4/2.1m/s","-","N/A","","Unknown","2010/1/1","5:00 PM","-3.6","-6.7","-5.1","89","1011.3","-","NE","7.4/2.1m/s","-","N/A","","Unknown","2010/1/1","6:00 PM","-3.5","-7.2","-4.9","90","1011.1","-","NE","9.3/2.6m/s","-","1.3","","Unknown","2010/1/1","7:00 PM","-4","-","-5","84","1011","-","North","9.3/","-","-","","","2010/1/1","7:00 PM","-3.5","-7.2","-4.9","90","1010.6","-","North","9.3/2.6m/s","-","N/A","","Unknown"
"2010/1/1","2010/1/1","12:00 AM","-3.8","-","-5.6","87","1016.1","-","NE","3.7/1.0m/s","-","N/A","","Unknown","2010/1/1","1:00 AM","-4","-","-6","84","1016","-","North","5.6/","-","-","","","2010/1/1","1:00 AM","-4.1","-6.5","-5.5","90","1015.5","-","North","5.6/1.5m/s","-","N/A","","Unknown","2010/1/1","2:00 AM","-4.2","-7.4","-5.6","90","1015.5","-","NNE","7.4/2.1m/s","-","N/A","","Unknown","2010/1/1","3:00 AM","-4.3","-7.5","-5.6","91","1015.2","-","NNE","7.4/2.1m/s","-","1.3","","Unknown","2010/1/1","4:00 AM","-4.3","-8.2","-5.6","91","1014.9","-","NNE","9.3/2.6m/s","-","N/A","","Unknown","2010/1/1","5:00 AM","-4.5","-7.8","-5.7","91","1014.5","-","NNE","7.4/2.1m/s","-","N/A","","Unknown","2010/1/1","6:00 AM","-4.6","-8.6","-6.0","90","1014.4","-","NNE","9.3/2.6m/s","-","N/A","","Unknown","2010/1/1","7:00 AM","-5","-","-6","85","1014","-","NNE","9.3/","-","-","","","2010/1/1","7:00 AM","-4.6","-8.6","-5.9","91","1014.2","-","NNE","9.3/2.6m/s","-","N/A","","Unknown","2010/1/1","8:00 AM","-4.6","-7.9","-6.1","89","1014.1","-","NNE","7.4/2.1m/s","-","N/A","","Unknown","2010/1/1","9:00 AM","-4.5","-8.4","-6.0","89","1014.0","-","North","9.3/2.6m/s","-","1.3","","Unknown","2010/1/1","10:00 AM","-4.2","-8.1","-5.8","89","1013.8","-","NNE","9.3/2.6m/s","-","N/A","","Unknown","2010/1/1","11:00 AM","-3.9","-7.7","-5.5","89","1013.0","-","North","9.3/2.6m/s","-","N/A","","Unknown","2010/1/1","12:00 PM","-3.2","-6.3","-5.3","86","1012.5","-","NNE","7.4/2.1m/s","-","N/A","","Unknown","2010/1/1","1:00 PM","-3","-","-5","80","1012","-","NNE","7.4/","-","-","","","2010/1/1","1:00 PM","-3.1","-6.1","-5.4","84","1011.9","-","NNE","7.4/2.1m/s","-","N/A","","Unknown","2010/1/1","2:00 PM","-3.3","-7.5","-5.6","84","1011.6","-","NNE","11.1/3.1m/s","-","N/A","","Unknown","2010/1/1","3:00 PM","-3.1","-6.1","-4.9","88","1011.5","-","NE","7.4/2.1m/s","-","N/A","","Unknown","2010/1/1","4:00 PM","-3.2","-6.3","-4.9","88","1011.3","-","NNE","7.4/2.1m/s","-","N/A","","Unknown","2010/1/1","5:00 PM","-3.6","-6.7","-5.1","89","1011.3","-","NE","7.4/2.1m/s","-","N/A","","Unknown","2010/1/1","6:00 PM","-3.5","-7.2","-4.9","90","1011.1","-","NE","9.3/2.6m/s","-","1.3","","Unknown","2010/1/1","7:00 PM","-4","-","-5","84","1011","-","North","9.3/","-","-","","","2010/1/1","7:00 PM","-3.5","-7.2","-4.9","90","1010.6","-","North","9.3/2.6m/s","-","N/A","","Unknown","2010/1/1","8:00 PM","-3.5","-7.2","-4.8","91","1010.2","-","NNE","9.3/2.6m/s","-","N/A","","Unknown"
"2010/1/1","2010/1/1","12:00 AM","-3.8","-","-5.6","87","1016.1","-","NE","3.7/1.0m/s","-","N/A","","Unknown","2010/1/1","1:00 AM","-4","-","-6","84","1016","-","North","5.6/","-","-","","","2010/1/1","1:00 AM","-4.1","-6.5","-5.5","90","1015.5","-","North","5.6/1.5m/s","-","N/A","","Unknown","2010/1/1","2:00 AM","-4.2","-7.4","-5.6","90","1015.5","-","NNE","7.4/2.1m/s","-","N/A","","Unknown","2010/1/1","3:00 AM","-4.3","-7.5","-5.6","91","1015.2","-","NNE","7.4/2.1m/s","-","1.3","","Unknown","2010/1/1","4:00 AM","-4.3","-8.2","-5.6","91","1014.9","-","NNE","9.3/2.6m/s","-","N/A","","Unknown","2010/1/1","5:00 AM","-4.5","-7.8","-5.7","91","1014.5","-","NNE","7.4/2.1m/s","-","N/A","","Unknown","2010/1/1","6:00 AM","-4.6","-8.6","-6.0","90","1014.4","-","NNE","9.3/2.6m/s","-","N/A","","Unknown","2010/1/1","7:00 AM","-5","-","-6","85","1014","-","NNE","9.3/","-","-","","","2010/1/1","7:00 AM","-4.6","-8.6","-5.9","91","1014.2","-","NNE","9.3/2.6m/s","-","N/A","","Unknown","2010/1/1","8:00 AM","-4.6","-7.9","-6.1","89","1014.1","-","NNE","7.4/2.1m/s","-","N/A","","Unknown","2010/1/1","9:00 AM","-4.5","-8.4","-6.0","89","1014.0","-","North","9.3/2.6m/s","-","1.3","","Unknown","2010/1/1","10:00 AM","-4.2","-8.1","-5.8","89","1013.8","-","NNE","9.3/2.6m/s","-","N/A","","Unknown","2010/1/1","11:00 AM","-3.9","-7.7","-5.5","89","1013.0","-","North","9.3/2.6m/s","-","N/A","","Unknown","2010/1/1","12:00 PM","-3.2","-6.3","-5.3","86","1012.5","-","NNE","7.4/2.1m/s","-","N/A","","Unknown","2010/1/1","1:00 PM","-3","-","-5","80","1012","-","NNE","7.4/","-","-","","","2010/1/1","1:00 PM","-3.1","-6.1","-5.4","84","1011.9","-","NNE","7.4/2.1m/s","-","N/A","","Unknown","2010/1/1","2:00 PM","-3.3","-7.5","-5.6","84","1011.6","-","NNE","11.1/3.1m/s","-","N/A","","Unknown","2010/1/1","3:00 PM","-3.1","-6.1","-4.9","88","1011.5","-","NE","7.4/2.1m/s","-","N/A","","Unknown","2010/1/1","4:00 PM","-3.2","-6.3","-4.9","88","1011.3","-","NNE","7.4/2.1m/s","-","N/A","","Unknown","2010/1/1","5:00 PM","-3.6","-6.7","-5.1","89","1011.3","-","NE","7.4/2.1m/s","-","N/A","","Unknown","2010/1/1","6:00 PM","-3.5","-7.2","-4.9","90","1011.1","-","NE","9.3/2.6m/s","-","1.3","","Unknown","2010/1/1","7:00 PM","-4","-","-5","84","1011","-","North","9.3/","-","-","","","2010/1/1","7:00 PM","-3.5","-7.2","-4.9","90","1010.6","-","North","9.3/2.6m/s","-","N/A","","Unknown","2010/1/1","8:00 PM","-3.5","-7.2","-4.8","91","1010.2","-","NNE","9.3/2.6m/s","-","N/A","","Unknown","2010/1/1","9:00 PM","-3.5","-7.2","-4.8","91","1009.6","-","North","9.3/2.6m/s","-","N/A","","Unknown"
"2010/1/1","2010/1/1","12:00 AM","-3.8","-","-5.6","87","1016.1","-","NE","3.7/1.0m/s","-","N/A","","Unknown","2010/1/1","1:00 AM","-4","-","-6","84","1016","-","North","5.6/","-","-","","","2010/1/1","1:00 AM","-4.1","-6.5","-5.5","90","1015.5","-","North","5.6/1.5m/s","-","N/A","","Unknown","2010/1/1","2:00 AM","-4.2","-7.4","-5.6","90","1015.5","-","NNE","7.4/2.1m/s","-","N/A","","Unknown","2010/1/1","3:00 AM","-4.3","-7.5","-5.6","91","1015.2","-","NNE","7.4/2.1m/s","-","1.3","","Unknown","2010/1/1","4:00 AM","-4.3","-8.2","-5.6","91","1014.9","-","NNE","9.3/2.6m/s","-","N/A","","Unknown","2010/1/1","5:00 AM","-4.5","-7.8","-5.7","91","1014.5","-","NNE","7.4/2.1m/s","-","N/A","","Unknown","2010/1/1","6:00 AM","-4.6","-8.6","-6.0","90","1014.4","-","NNE","9.3/2.6m/s","-","N/A","","Unknown","2010/1/1","7:00 AM","-5","-","-6","85","1014","-","NNE","9.3/","-","-","","","2010/1/1","7:00 AM","-4.6","-8.6","-5.9","91","1014.2","-","NNE","9.3/2.6m/s","-","N/A","","Unknown","2010/1/1","8:00 AM","-4.6","-7.9","-6.1","89","1014.1","-","NNE","7.4/2.1m/s","-","N/A","","Unknown","2010/1/1","9:00 AM","-4.5","-8.4","-6.0","89","1014.0","-","North","9.3/2.6m/s","-","1.3","","Unknown","2010/1/1","10:00 AM","-4.2","-8.1","-5.8","89","1013.8","-","NNE","9.3/2.6m/s","-","N/A","","Unknown","2010/1/1","11:00 AM","-3.9","-7.7","-5.5","89","1013.0","-","North","9.3/2.6m/s","-","N/A","","Unknown","2010/1/1","12:00 PM","-3.2","-6.3","-5.3","86","1012.5","-","NNE","7.4/2.1m/s","-","N/A","","Unknown","2010/1/1","1:00 PM","-3","-","-5","80","1012","-","NNE","7.4/","-","-","","","2010/1/1","1:00 PM","-3.1","-6.1","-5.4","84","1011.9","-","NNE","7.4/2.1m/s","-","N/A","","Unknown","2010/1/1","2:00 PM","-3.3","-7.5","-5.6","84","1011.6","-","NNE","11.1/3.1m/s","-","N/A","","Unknown","2010/1/1","3:00 PM","-3.1","-6.1","-4.9","88","1011.5","-","NE","7.4/2.1m/s","-","N/A","","Unknown","2010/1/1","4:00 PM","-3.2","-6.3","-4.9","88","1011.3","-","NNE","7.4/2.1m/s","-","N/A","","Unknown","2010/1/1","5:00 PM","-3.6","-6.7","-5.1","89","1011.3","-","NE","7.4/2.1m/s","-","N/A","","Unknown","2010/1/1","6:00 PM","-3.5","-7.2","-4.9","90","1011.1","-","NE","9.3/2.6m/s","-","1.3","","Unknown","2010/1/1","7:00 PM","-4","-","-5","84","1011","-","North","9.3/","-","-","","","2010/1/1","7:00 PM","-3.5","-7.2","-4.9","90","1010.6","-","North","9.3/2.6m/s","-","N/A","","Unknown","2010/1/1","8:00 PM","-3.5","-7.2","-4.8","91","1010.2","-","NNE","9.3/2.6m/s","-","N/A","","Unknown","2010/1/1","9:00 PM","-3.5","-7.2","-4.8","91","1009.6","-","North","9.3/2.6m/s","-","N/A","","Unknown","2010/1/1","10:00 PM","-3.4","-7.1","-4.6","92","1009.0","-","NNE","9.3/2.6m/s","-","N/A","","Unknown"
"2010/1/1","2010/1/1","12:00 AM","-3.8","-","-5.6","87","1016.1","-","NE","3.7/1.0m/s","-","N/A","","Unknown","2010/1/1","1:00 AM","-4","-","-6","84","1016","-","North","5.6/","-","-","","","2010/1/1","1:00 AM","-4.1","-6.5","-5.5","90","1015.5","-","North","5.6/1.5m/s","-","N/A","","Unknown","2010/1/1","2:00 AM","-4.2","-7.4","-5.6","90","1015.5","-","NNE","7.4/2.1m/s","-","N/A","","Unknown","2010/1/1","3:00 AM","-4.3","-7.5","-5.6","91","1015.2","-","NNE","7.4/2.1m/s","-","1.3","","Unknown","2010/1/1","4:00 AM","-4.3","-8.2","-5.6","91","1014.9","-","NNE","9.3/2.6m/s","-","N/A","","Unknown","2010/1/1","5:00 AM","-4.5","-7.8","-5.7","91","1014.5","-","NNE","7.4/2.1m/s","-","N/A","","Unknown","2010/1/1","6:00 AM","-4.6","-8.6","-6.0","90","1014.4","-","NNE","9.3/2.6m/s","-","N/A","","Unknown","2010/1/1","7:00 AM","-5","-","-6","85","1014","-","NNE","9.3/","-","-","","","2010/1/1","7:00 AM","-4.6","-8.6","-5.9","91","1014.2","-","NNE","9.3/2.6m/s","-","N/A","","Unknown","2010/1/1","8:00 AM","-4.6","-7.9","-6.1","89","1014.1","-","NNE","7.4/2.1m/s","-","N/A","","Unknown","2010/1/1","9:00 AM","-4.5","-8.4","-6.0","89","1014.0","-","North","9.3/2.6m/s","-","1.3","","Unknown","2010/1/1","10:00 AM","-4.2","-8.1","-5.8","89","1013.8","-","NNE","9.3/2.6m/s","-","N/A","","Unknown","2010/1/1","11:00 AM","-3.9","-7.7","-5.5","89","1013.0","-","North","9.3/2.6m/s","-","N/A","","Unknown","2010/1/1","12:00 PM","-3.2","-6.3","-5.3","86","1012.5","-","NNE","7.4/2.1m/s","-","N/A","","Unknown","2010/1/1","1:00 PM","-3","-","-5","80","1012","-","NNE","7.4/","-","-","","","2010/1/1","1:00 PM","-3.1","-6.1","-5.4","84","1011.9","-","NNE","7.4/2.1m/s","-","N/A","","Unknown","2010/1/1","2:00 PM","-3.3","-7.5","-5.6","84","1011.6","-","NNE","11.1/3.1m/s","-","N/A","","Unknown","2010/1/1","3:00 PM","-3.1","-6.1","-4.9","88","1011.5","-","NE","7.4/2.1m/s","-","N/A","","Unknown","2010/1/1","4:00 PM","-3.2","-6.3","-4.9","88","1011.3","-","NNE","7.4/2.1m/s","-","N/A","","Unknown","2010/1/1","5:00 PM","-3.6","-6.7","-5.1","89","1011.3","-","NE","7.4/2.1m/s","-","N/A","","Unknown","2010/1/1","6:00 PM","-3.5","-7.2","-4.9","90","1011.1","-","NE","9.3/2.6m/s","-","1.3","","Unknown","2010/1/1","7:00 PM","-4","-","-5","84","1011","-","North","9.3/","-","-","","","2010/1/1","7:00 PM","-3.5","-7.2","-4.9","90","1010.6","-","North","9.3/2.6m/s","-","N/A","","Unknown","2010/1/1","8:00 PM","-3.5","-7.2","-4.8","91","1010.2","-","NNE","9.3/2.6m/s","-","N/A","","Unknown","2010/1/1","9:00 PM","-3.5","-7.2","-4.8","91","1009.6","-","North","9.3/2.6m/s","-","N/A","","Unknown","2010/1/1","10:00 PM","-3.4","-7.1","-4.6","92","1009.0","-","NNE","9.3/2.6m/s","-","N/A","","Unknown","2010/1/1","11:00 PM","-3.5","-7.2","-4.8","91","1008.6","-","North","9.3/2.6m/s","-","N/A","","Unknown"
"2010/1/1","2010/1/1","12:00 AM","-3.8","-","-5.6","87","1016.1","-","NE","3.7/1.0m/s","-","N/A","","Unknown","2010/1/1","1:00 AM","-4","-","-6","84","1016","-","North","5.6/","-","-","","","2010/1/1","1:00 AM","-4.1","-6.5","-5.5","90","1015.5","-","North","5.6/1.5m/s","-","N/A","","Unknown","2010/1/1","2:00 AM","-4.2","-7.4","-5.6","90","1015.5","-","NNE","7.4/2.1m/s","-","N/A","","Unknown","2010/1/1","3:00 AM","-4.3","-7.5","-5.6","91","1015.2","-","NNE","7.4/2.1m/s","-","1.3","","Unknown","2010/1/1","4:00 AM","-4.3","-8.2","-5.6","91","1014.9","-","NNE","9.3/2.6m/s","-","N/A","","Unknown","2010/1/1","5:00 AM","-4.5","-7.8","-5.7","91","1014.5","-","NNE","7.4/2.1m/s","-","N/A","","Unknown","2010/1/1","6:00 AM","-4.6","-8.6","-6.0","90","1014.4","-","NNE","9.3/2.6m/s","-","N/A","","Unknown","2010/1/1","7:00 AM","-5","-","-6","85","1014","-","NNE","9.3/","-","-","","","2010/1/1","7:00 AM","-4.6","-8.6","-5.9","91","1014.2","-","NNE","9.3/2.6m/s","-","N/A","","Unknown","2010/1/1","8:00 AM","-4.6","-7.9","-6.1","89","1014.1","-","NNE","7.4/2.1m/s","-","N/A","","Unknown","2010/1/1","9:00 AM","-4.5","-8.4","-6.0","89","1014.0","-","North","9.3/2.6m/s","-","1.3","","Unknown","2010/1/1","10:00 AM","-4.2","-8.1","-5.8","89","1013.8","-","NNE","9.3/2.6m/s","-","N/A","","Unknown","2010/1/1","11:00 AM","-3.9","-7.7","-5.5","89","1013.0","-","North","9.3/2.6m/s","-","N/A","","Unknown","2010/1/1","12:00 PM","-3.2","-6.3","-5.3","86","1012.5","-","NNE","7.4/2.1m/s","-","N/A","","Unknown","2010/1/1","1:00 PM","-3","-","-5","80","1012","-","NNE","7.4/","-","-","","","2010/1/1","1:00 PM","-3.1","-6.1","-5.4","84","1011.9","-","NNE","7.4/2.1m/s","-","N/A","","Unknown","2010/1/1","2:00 PM","-3.3","-7.5","-5.6","84","1011.6","-","NNE","11.1/3.1m/s","-","N/A","","Unknown","2010/1/1","3:00 PM","-3.1","-6.1","-4.9","88","1011.5","-","NE","7.4/2.1m/s","-","N/A","","Unknown","2010/1/1","4:00 PM","-3.2","-6.3","-4.9","88","1011.3","-","NNE","7.4/2.1m/s","-","N/A","","Unknown","2010/1/1","5:00 PM","-3.6","-6.7","-5.1","89","1011.3","-","NE","7.4/2.1m/s","-","N/A","","Unknown","2010/1/1","6:00 PM","-3.5","-7.2","-4.9","90","1011.1","-","NE","9.3/2.6m/s","-","1.3","","Unknown","2010/1/1","7:00 PM","-4","-","-5","84","1011","-","North","9.3/","-","-","","","2010/1/1","7:00 PM","-3.5","-7.2","-4.9","90","1010.6","-","North","9.3/2.6m/s","-","N/A","","Unknown","2010/1/1","8:00 PM","-3.5","-7.2","-4.8","91","1010.2","-","NNE","9.3/2.6m/s","-","N/A","","Unknown","2010/1/1","9:00 PM","-3.5","-7.2","-4.8","91","1009.6","-","North","9.3/2.6m/s","-","N/A","","Unknown","2010/1/1","10:00 PM","-3.4","-7.1","-4.6","92","1009.0","-","NNE","9.3/2.6m/s","-","N/A","","Unknown","2010/1/1","11:00 PM","-3.5","-7.2","-4.8","91","1008.6","-","North","9.3/2.6m/s","-","N/A","","Unknown","2010/1/1","Show full METARS|METAR FAQ|"
